SEMAPHORE_L_00001001-121
1 17586U 22191PX  26070.40781250  .00000000  00000+0  00000-0 0  9993
2 17586   0.0000   0.0000 0000000   0.0000 180.0000 15.50590797    17
SEMAPHORE_L_00001001-122
1 17587U 26922QZ  26070.40781250  .00000000  00000+0  00000-0 0  9990
2 17587   0.0000   0.0000 0000000   0.0000 181.5000 15.50590797    14
SEMAPHORE_L_00001001-123
1 17588U 23266UR  26070.40781250  .00000000  00000+0  00000-0 0  9999
2 17588   0.0000   0.0000 0000000   0.0000 183.0000 15.50590797    12
SEMAPHORE_L_00001001-124
1 17589U 23122MO  26070.40781250  .00000000  00000+0  00000-0 0  9991
2 17589   0.0000   0.0000 0000000   0.0000 184.5000 15.50590797    19
SEMAPHORE_L_00001001-125
1 17590U 26686ML  26070.40781250  .00000000  00000+0  00000-0 0  9991
2 17590   0.0000   0.0000 0000000   0.0000 186.0000 15.50590797    18
SEMAPHORE_L_00001001-126
1 17591U 23446WC  26070.40781250  .00000000  00000+0  00000-0 0  9993
2 17591   0.0000   0.0000 0000000   0.0000 187.5000 15.50590797    15
SEMAPHORE_L_00001001-127
1 17592U 23272HS  26070.40781250  .00000000  00000+0  00000-0 0  9991
2 17592   0.0000   0.0000 0000000   0.0000 189.0000 15.50590797    13
SEMAPHORE_L_00001001-128
1 17593U 25208IW  26070.40781250  .00000000  00000+0  00000-0 0  9993
2 17593   0.0000   0.0000 0000000   0.0000 190.5000 15.50590797    11
SEMAPHORE_L_00001001-129
1 17594U 22298LN  26070.40781250  .00000000  00000+0  00000-0 0  9990
2 17594   0.0000   0.0000 0000000   0.0000 192.0000 15.50590797    19
SEMAPHORE_L_00001001-130
1 17595U 26488ZI  26070.40781250  .00000000  00000+0  00000-0 0  9996
2 17595   0.0000   0.0000 0000000   0.0000 193.5000 15.50590797    16
SEMAPHORE_L_00001001-131
1 17596U 25835OT  26070.40781250  .00000000  00000+0  00000-0 0  9992
2 17596   0.0000   0.0000 0000000   0.0000 195.0000 15.50590797    14
SEMAPHORE_L_00001001-132
1 17597U 22831HC  26070.40781250  .00000000  00000+0  00000-0 0  9996
2 17597   0.0000   0.0000 0000000   0.0000 196.5000 15.50590797    11
SEMAPHORE_L_00001001-133
1 17598U 24638TM  26070.40781250  .00000000  00000+0  00000-0 0  9994
2 17598   0.0000   0.0000 0000000   0.0000 198.0000 15.50590797    19
SEMAPHORE_L_00001001-134
1 17599U 25851QP  26070.40781250  .00000000  00000+0  00000-0 0  9993
2 17599   0.0000   0.0000 0000000   0.0000 199.5000 15.50590797    16
SEMAPHORE_L_00001001-135
1 17600U 22299NB  26070.40781250  .00000000  00000+0  00000-0 0  9999
2 17600   0.0000   0.0000 0000000   0.0000 201.0000 15.50590797    18
SEMAPHORE_L_00001001-136
1 17601U 26107HC  26070.40781250  .00000000  00000+0  00000-0 0  9992
2 17601   0.0000   0.0000 0000000   0.0000 202.5000 15.50590797    15
SEMAPHORE_L_00001001-137
1 17602U 24454JE  26070.40781250  .00000000  00000+0  00000-0 0  9996
2 17602   0.0000   0.0000 0000000   0.0000 204.0000 15.50590797    13
SEMAPHORE_L_00001001-138
1 17603U 24580LB  26070.40781250  .00000000  00000+0  00000-0 0  9997
2 17603   0.0000   0.0000 0000000   0.0000 205.5000 15.50590797    10
SEMAPHORE_L_00001001-139
1 17604U 22466VW  26070.40781250  .00000000  00000+0  00000-0 0  9999
2 17604   0.0000   0.0000 0000000   0.0000 207.0000 15.50590797    18
SEMAPHORE_L_00001001-140
1 17605U 22353MJ  26070.40781250  .00000000  00000+0  00000-0 0  9995
2 17605   0.0000   0.0000 0000000   0.0000 208.5000 15.50590797    15
SEMAPHORE_L_00001001-141
1 17606U 25207YW  26070.40781250  .00000000  00000+0  00000-0 0  9997
2 17606   0.0000   0.0000 0000000   0.0000 210.0000 15.50590797    14
SEMAPHORE_L_00001001-142
1 17607U 24915QK  26070.40781250  .00000000  00000+0  00000-0 0  9993
2 17607   0.0000   0.0000 0000000   0.0000 211.5000 15.50590797    11
SEMAPHORE_L_00001001-143
1 17608U 22605RL  26070.40781250  .00000000  00000+0  00000-0 0  9998
2 17608   0.0000   0.0000 0000000   0.0000 213.0000 15.50590797    19
SEMAPHORE_L_00001001-144
1 17609U 23514UT  26070.40781250  .00000000  00000+0  00000-0 0  9999
2 17609   0.0000   0.0000 0000000   0.0000 214.5000 15.50590797    16
SEMAPHORE_L_00001001-145
1 17610U 26815KA  26070.40781250  .00000000  00000+0  00000-0 0  9998
2 17610   0.0000   0.0000 0000000   0.0000 216.0000 15.50590797    15
SEMAPHORE_L_00001001-146
1 17611U 22764NC  26070.40781250  .00000000  00000+0  00000-0 0  9998
2 17611   0.0000   0.0000 0000000   0.0000 217.5000 15.50590797    12
SEMAPHORE_L_00001001-147
1 17612U 26480VB  26070.40781250  .00000000  00000+0  00000-0 0  9998
2 17612   0.0000   0.0000 0000000   0.0000 219.0000 15.50590797    10
SEMAPHORE_L_00001001-148
1 17613U 22482BH  26070.40781250  .00000000  00000+0  00000-0 0  9997
2 17613   0.0000   0.0000 0000000   0.0000 220.5000 15.50590797    18
SEMAPHORE_L_00001001-149
1 17614U 25171ME  26070.40781250  .00000000  00000+0  00000-0 0  9996
2 17614   0.0000   0.0000 0000000   0.0000 222.0000 15.50590797    16
SEMAPHORE_L_00001001-150
1 17615U 26370TS  26070.40781250  .00000000  00000+0  00000-0 0  9999
2 17615   0.0000   0.0000 0000000   0.0000 223.5000 15.50590797    13
SEMAPHORE_L_00001001-151
1 17616U 23186DA  26070.40781250  .00000000  00000+0  00000-0 0  9992
2 17616   0.0000   0.0000 0000000   0.0000 225.0000 15.50590797    11
SEMAPHORE_L_00001001-152
1 17617U 24759DG  26070.40781250  .00000000  00000+0  00000-0 0  9990
2 17617   0.0000   0.0000 0000000   0.0000 226.5000 15.50590797    18
SEMAPHORE_L_00001001-153
1 17618U 26210SI  26070.40781250  .00000000  00000+0  00000-0 0  9995
2 17618   0.0000   0.0000 0000000   0.0000 228.0000 15.50590797    16
SEMAPHORE_L_00001001-154
1 17619U 22063KM  26070.40781250  .00000000  00000+0  00000-0 0  9998
2 17619   0.0000   0.0000 0000000   0.0000 229.5000 15.50590797    13
SEMAPHORE_L_00001001-155
1 17620U 22687IG  26070.40781250  .00000000  00000+0  00000-0 0  9992
2 17620   0.0000   0.0000 0000000   0.0000 231.0000 15.50590797    13
SEMAPHORE_L_00001001-156
1 17621U 26984IU  26070.40781250  .00000000  00000+0  00000-0 0  9997
2 17621   0.0000   0.0000 0000000   0.0000 232.5000 15.50590797    10
SEMAPHORE_L_00001001-157
1 17622U 25411NX  26070.40781250  .00000000  00000+0  00000-0 0  9992
2 17622   0.0000   0.0000 0000000   0.0000 234.0000 15.50590797    18
SEMAPHORE_L_00001001-158
1 17623U 23151DI  26070.40781250  .00000000  00000+0  00000-0 0  9992
2 17623   0.0000   0.0000 0000000   0.0000 235.5000 15.50590797    15
SEMAPHORE_L_00001001-159
1 17624U 22995IS  26070.40781250  .00000000  00000+0  00000-0 0  9998
2 17624   0.0000   0.0000 0000000   0.0000 237.0000 15.50590797    13
SEMAPHORE_L_00001001-160
1 17625U 26081SL  26070.40781250  .00000000  00000+0  00000-0 0  9999
2 17625   0.0000   0.0000 0000000   0.0000 238.5000 15.50590797    10
SEMAPHORE_L_00001001-161
1 17626U 23636NO  26070.40781250  .00000000  00000+0  00000-0 0  9993
2 17626   0.0000   0.0000 0000000   0.0000 240.0000 15.50590797    19
SEMAPHORE_L_00001001-162
1 17627U 26877CW  26070.40781250  .00000000  00000+0  00000-0 0  9994
2 17627   0.0000   0.0000 0000000   0.0000 241.5000 15.50590797    16
SEMAPHORE_L_00001001-163
1 17628U 24279KZ  26070.40781250  .00000000  00000+0  00000-0 0  9999
2 17628   0.0000   0.0000 0000000   0.0000 243.0000 15.50590797    14
SEMAPHORE_L_00001001-164
1 17629U 26316CL  26070.40781250  .00000000  00000+0  00000-0 0  9994
2 17629   0.0000   0.0000 0000000   0.0000 244.5000 15.50590797    11
SEMAPHORE_L_00001001-165
1 17630U 23604FV  26070.40781250  .00000000  00000+0  00000-0 0  9993
2 17630   0.0000   0.0000 0000000   0.0000 246.0000 15.50590797    10
SEMAPHORE_L_00001001-166
1 17631U 23895CU  26070.40781250  .00000000  00000+0  00000-0 0  9996
2 17631   0.0000   0.0000 0000000   0.0000 247.5000 15.50590797    17
SEMAPHORE_L_00001001-167
1 17632U 24262JA  26070.40781250  .00000000  00000+0  00000-0 0  9996
2 17632   0.0000   0.0000 0000000   0.0000 249.0000 15.50590797    15
SEMAPHORE_L_00001001-168
1 17633U 22170KD  26070.40781250  .00000000  00000+0  00000-0 0  9993
2 17633   0.0000   0.0000 0000000   0.0000 250.5000 15.50590797    13
SEMAPHORE_L_00001001-169
1 17634U 25682ZG  26070.40781250  .00000000  00000+0  00000-0 0  9995
2 17634   0.0000   0.0000 0000000   0.0000 252.0000 15.50590797    11
SEMAPHORE_L_00001001-170
1 17635U 26529BT  26070.40781250  .00000000  00000+0  00000-0 0  9997
2 17635   0.0000   0.0000 0000000   0.0000 253.5000 15.50590797    18
SEMAPHORE_L_00001001-171
1 17636U 25188XM  26070.40781250  .00000000  00000+0  00000-0 0  9998
2 17636   0.0000   0.0000 0000000   0.0000 255.0000 15.50590797    16
SEMAPHORE_L_00001001-172
1 17637U 26274KG  26070.40781250  .00000000  00000+0  00000-0 0  9996
2 17637   0.0000   0.0000 0000000   0.0000 256.5000 15.50590797    13
SEMAPHORE_L_00001001-173
1 17638U 22813LS  26070.40781250  .00000000  00000+0  00000-0 0  9992
2 17638   0.0000   0.0000 0000000   0.0000 258.0000 15.50590797    11
SEMAPHORE_L_00001001-174
1 17639U 26650QT  26070.40781250  .00000000  00000+0  00000-0 0  9996
2 17639   0.0000   0.0000 0000000   0.0000 259.5000 15.50590797    18
SEMAPHORE_L_00001001-175
1 17640U 23220RT  26070.40781250  .00000000  00000+0  00000-0 0  9998
2 17640   0.0000   0.0000 0000000   0.0000 261.0000 15.50590797    18
SEMAPHORE_L_00001001-176
1 17641U 22376DP  26070.40781250  .00000000  00000+0  00000-0 0  9990
2 17641   0.0000   0.0000 0000000   0.0000 262.5000 15.50590797    15
SEMAPHORE_L_00001001-177
1 17642U 25450FP  26070.40781250  .00000000  00000+0  00000-0 0  9997
2 17642   0.0000   0.0000 0000000   0.0000 264.0000 15.50590797    13
SEMAPHORE_L_00001001-178
1 17643U 26464WY  26070.40781250  .00000000  00000+0  00000-0 0  9994
2 17643   0.0000   0.0000 0000000   0.0000 265.5000 15.50590797    10
SEMAPHORE_L_00001001-179
1 17644U 24303NJ  26070.40781250  .00000000  00000+0  00000-0 0  9995
2 17644   0.0000   0.0000 0000000   0.0000 267.0000 15.50590797    18
SEMAPHORE_L_00001001-180
1 17645U 26214NO  26070.40781250  .00000000  00000+0  00000-0 0  9999
2 17645   0.0000   0.0000 0000000   0.0000 268.5000 15.50590797    15
